NORAD_CAT_ID,OBJECT_NAME,OBJECT_TYPE,EPOCH,MEAN_MOTION,ECCENTRICITY,INCLINATION,RA_OF_ASC_NODE,ARG_OF_PERICENTER,MEAN_ANOMALY,BSTAR,MEAN_MOTION_DOT,MEAN_MOTION_DDOT,TLE_LINE0,TLE_LINE1,TLE_LINE2,SEMIMAJOR_AXIS,PERIOD,APOGEE,PERIGEE,DECAYED
52089.0,STARLINK-3722,PAYLOAD,2024-02-12 19:49:39,15.08817203,0.000145,53.2154,242.3272,113.1107,247.0038,-4.2935e-05,-9.71e-06,0.0,0 STARLINK-3722,1 52089U 22029B   24043.82614641 -.00000971  00000-0 -42935-4 0  9990,2 52089  53.2154 242.3272 0001450 113.1107 247.0038 15.08817203106547,6917.95,95.439,540.818,538.812,0.0
52089.0,STARLINK-3722,PAYLOAD,2024-02-13 19:40:32,15.08745036,0.0001532,53.2158,237.8672,120.1673,239.9471,-0.00068539,-0.00011151,0.0,0 STARLINK-3722,1 52089U 22029B   24044.81981536 -.00011151  00000-0 -68539-3 0  9999,2 52089  53.2158 237.8672 0001532 120.1673 239.9471 15.08745036106692,6918.171,95.444,541.096,538.976,0.0
52089.0,STARLINK-3722,PAYLOAD,2024-02-14 05:12:52,15.08750403,0.0001927,53.2155,236.0826,112.4413,247.6783,-8.0716e-05,-1.569e-05,0.0,0 STARLINK-3722,1 52089U 22029B   24045.21727797 -.00001569  00000-0 -80716-4 0  9995,2 52089  53.2155 236.0826 0001927 112.4413 247.6783 15.08750403106758,6918.154,95.443,541.352,538.686,0.0
52089.0,STARLINK-3722,PAYLOAD,2024-02-14 13:09:49,15.08776379,1.63e-05,53.2153,234.588,9.3084,350.7911,0.00077835,0.000121,0.0,0 STARLINK-3722,1 52089U 22029B   24045.54848657  .00012100  00000-0  77835-3 0  9998,2 52089  53.2153 234.5880 0000163   9.3084 350.7911 15.08776379106803,6918.075,95.442,540.053,539.827,0.0
52089.0,STARLINK-3722,PAYLOAD,2024-02-14 19:31:22,15.08796068,0.000147,53.216,233.4062,119.7628,240.351,0.0013489,0.00021219,0.0,0 STARLINK-3722,1 52089U 22029B   24045.81345069  .00021219  00000-0  13489-2 0  9992,2 52089  53.2160 233.4062 0001470 119.7628 240.3510 15.08796068106843,6918.015,95.44,540.897,538.863,0.0
52089.0,STARLINK-3722,PAYLOAD,2024-02-15 19:22:09,15.08845129,0.0001153,53.2156,228.9441,120.683,239.4275,0.00074928,0.00011659,0.0,0 STARLINK-3722,1 52089U 22029B   24046.80705215  .00011659  00000-0  74928-3 0  9998,2 52089  53.2156 228.9441 0001153 120.6830 239.4275 15.08845129106998,6917.865,95.437,540.527,538.932,0.0
52089.0,STARLINK-3722,PAYLOAD,2024-02-15 22:32:55,15.08852008,0.0001095,53.2152,228.3485,118.4055,241.7048,0.00077704,0.00012104,0.0,0 STARLINK-3722,1 52089U 22029B   24046.93953006  .00012104  00000-0  77704-3 0  9996,2 52089  53.2152 228.3485 0001095 118.4055 241.7048 15.08852008107017,6917.844,95.437,540.466,538.951,0.0
52089.0,STARLINK-3722,PAYLOAD,2024-02-16 04:54:27,15.08860277,0.0001096,53.2148,227.159,120.0108,240.0993,0.00090726,0.00014189,0.0,0 STARLINK-3722,1 52089U 22029B   24047.20448724  .00014189  00000-0  90726-3 0  9997,2 52089  53.2148 227.1590 0001096 120.0108 240.0993 15.08860277107057,6917.818,95.436,540.442,538.925,0.0
52089.0,STARLINK-3722,PAYLOAD,2024-02-16 20:48:18,15.08872192,0.0001143,53.2154,224.1859,119.4183,240.6923,0.00073622,0.00011459,0.0,0 STARLINK-3722,1 52089U 22029B   24047.86687607  .00011459  00000-0  73622-3 0  9997,2 52089  53.2154 224.1859 0001143 119.4183 240.6923 15.08872192107156,6917.782,95.436,540.438,538.856,0.0
52089.0,STARLINK-3722,PAYLOAD,2024-02-17 11:06:46,15.08855037,0.0001033,53.2152,221.5093,109.7319,250.3784,0.00017639,2.522e-05,0.0,0 STARLINK-3722,1 52089U 22029B   24048.46303450  .00002522  00000-0  17639-3 0  9992,2 52089  53.2152 221.5093 0001033 109.7319 250.3784 15.08855037107248,6917.834,95.437,540.414,538.985,0.0
52089.0,STARLINK-3722,PAYLOAD,2024-02-17 19:03:41,15.08852552,9.31e-05,53.2154,220.0223,104.0841,256.0255,0.00014868,2.08e-05,0.0,0 STARLINK-3722,1 52089U 22029B   24048.79423410  .00002080  00000-0  14868-3 0  9997,2 52089  53.2154 220.0223 0000931 104.0841 256.0255 15.08852552107293,6917.842,95.437,540.351,539.063,0.0
52089.0,STARLINK-3722,PAYLOAD,2024-02-18 10:57:33,15.08845902,9.57e-05,53.2151,217.0486,100.5076,259.6024,0.00017166,2.446e-05,0.0,0 STARLINK-3722,1 52089U 22029B   24049.45663436  .00002446  00000-0  17166-3 0  9995,2 52089  53.2151 217.0486 0000957 100.5076 259.6024 15.08845902107391,6917.862,95.437,540.389,539.065,0.0
52089.0,STARLINK-3722,PAYLOAD,2024-02-18 20:29:51,15.08857272,0.0001023,53.2149,215.2644,96.6275,263.4834,0.00037286,5.654e-05,0.0,0 STARLINK-3722,1 52089U 22029B   24049.85406932  .00005654  00000-0  37286-3 0  9994,2 52089  53.2149 215.2644 0001023  96.6275 263.4834 15.08857272107457,6917.828,95.436,540.4,538.985,0.0
52089.0,STARLINK-3722,PAYLOAD,2024-02-19 10:48:20,15.0884222,0.0001462,53.2147,212.5882,94.3915,265.7244,0.00013419,1.848e-05,0.0,0 STARLINK-3722,1 52089U 22029B   24050.45023556  .00001848  00000-0  13419-3 0  9992,2 52089  53.2147 212.5882 0001462  94.3915 265.7244 15.08842220107549,6917.874,95.437,540.75,538.727,0.0
52089.0,STARLINK-3722,PAYLOAD,2024-02-19 13:59:06,15.08840847,0.0001279,53.2144,211.9931,102.7432,257.3703,9.7437e-05,1.263e-05,0.0,0 STARLINK-3722,1 52089U 22029B   24050.58271534  .00001263  00000-0  97437-4 0  9991,2 52089  53.2144 211.9931 0001279 102.7432 257.3703 15.08840847107560,6917.878,95.438,540.628,538.858,0.0
52089.0,STARLINK-3722,PAYLOAD,2024-02-19 17:09:52,15.08840495,0.0001185,53.2149,211.3986,103.0279,257.0846,9.6812e-05,1.253e-05,0.0,0 STARLINK-3722,1 52089U 22029B   24050.71519609  .00001253  00000-0  96812-4 0  9999,2 52089  53.2149 211.3986 0001185 103.0279 257.0846 15.08840495107584,6917.879,95.438,540.564,538.924,0.0
52089.0,STARLINK-3722,PAYLOAD,2024-02-20 10:39:07,15.08835272,0.0001113,53.2153,208.1286,101.2971,258.8146,3.3351e-05,2.43e-06,0.0,0 STARLINK-3722,1 52089U 22029B   24051.44384050  .00000243  00000-0  33351-4 0  9997,2 52089  53.2153 208.1286 0001113 101.2971 258.8146 15.08835272107697,6917.895,95.438,540.53,538.99,0.0
52089.0,STARLINK-3722,PAYLOAD,2024-02-20 13:49:54,15.08836461,0.0001178,53.2151,207.5327,104.4265,255.6857,6.2701e-05,7.1e-06,0.0,0 STARLINK-3722,1 52089U 22029B   24051.57632054  .00000710  00000-0  62701-4 0  9991,2 52089  53.2151 207.5327 0001178 104.4265 255.6857 15.08836461107714,6917.891,95.438,540.571,538.941,0.0
52089.0,STARLINK-3722,PAYLOAD,2024-02-20 17:00:40,15.08836781,0.000108,53.2158,206.94,95.8535,264.258,5.125e-05,5.28e-06,0.0,0 STARLINK-3722,1 52089U 22029B   24051.70880171  .00000528  00000-0  51250-4 0  9995,2 52089  53.2158 206.9400 0001080  95.8535 264.2580 15.08836781107737,6917.89,95.438,540.502,539.008,0.0
52089.0,STARLINK-3722,PAYLOAD,2024-02-21 13:40:40,15.08845372,0.000105,53.2157,203.0754,88.3108,271.8004,0.00019294,2.785e-05,0.0,0 STARLINK-3722,1 52089U 22029B   24052.56991801  .00002785  00000-0  19294-3 0  9991,2 52089  53.2157 203.0754 0001050  88.3108 271.8004 15.08845372107861,6917.864,95.437,540.455,539.003,0.0
52089.0,STARLINK-3722,PAYLOAD,2024-02-21 16:51:27,15.0884877,9.97e-05,53.2152,202.4799,90.6835,269.4271,0.00036034,5.453e-05,0.0,0 STARLINK-3722,1 52089U 22029B   24052.70239797  .00005453  00000-0  36034-3 0  9992,2 52089  53.2152 202.4799 0000997  90.6835 269.4271 15.08848770107886,6917.854,95.437,540.408,539.029,0.0
52089.0,STARLINK-3722,PAYLOAD,2024-02-22 08:45:18,15.08844751,0.0001215,53.217,199.5102,98.5987,261.5143,0.00015989,2.258e-05,0.0,0 STARLINK-3722,1 52089U 22029B   24053.36479745  .00002258  00000-0  15989-3 0  9990,2 52089  53.2170 199.5102 0001215  98.5987 261.5143 15.08844751107986,6917.866,95.437,540.571,538.89,0.0
52089.0,STARLINK-3722,PAYLOAD,2024-02-22 13:31:28,15.08840015,0.0001067,53.2162,198.6142,87.1118,272.9996,3.3008e-05,2.38e-06,0.0,0 STARLINK-3722,1 52089U 22029B   24053.56351921  .00000238  00000-0  33008-4 0  9996,2 52089  53.2162 198.6142 0001067  87.1118 272.9996 15.08840015108012,6917.88,95.438,540.483,539.007,0.0
52089.0,STARLINK-3722,PAYLOAD,2024-02-22 15:06:51,15.08838995,0.0001105,53.2164,198.3173,90.4529,269.6589,7.4485e-05,8.98e-06,0.0,0 STARLINK-3722,1 52089U 22029B   24053.62976032  .00000898  00000-0  74485-4 0  9995,2 52089  53.2164 198.3173 0001105  90.4529 269.6589 15.08838995108027,6917.883,95.438,540.513,538.984,0.0
52089.0,STARLINK-3722,PAYLOAD,2024-02-23 13:22:15,15.08842567,0.0001173,53.2169,194.1551,90.5038,269.6089,1.6554e-05,-2.4e-07,0.0,0 STARLINK-3722,1 52089U 22029B   24054.55711811 -.00000024  00000-0  16554-4 0  9995,2 52089  53.2169 194.1551 0001173  90.5038 269.6089 15.08842567108167,6917.873,95.437,540.549,538.926,0.0
52089.0,STARLINK-3722,PAYLOAD,2024-02-23 18:08:24,15.08845485,0.0001122,53.2175,193.263,90.1098,270.0022,5.4094e-05,5.73e-06,0.0,0 STARLINK-3722,1 52089U 22029B   24054.75583851  .00000573  00000-0  54094-4 0  9997,2 52089  53.2175 193.2630 0001122  90.1098 270.0022 15.08845485108196,6917.864,95.437,540.505,538.952,0.0
52089.0,STARLINK-3722,PAYLOAD,2024-02-24 08:26:53,15.08837455,0.0001464,53.2186,190.5907,90.8801,269.2359,6.2377e-05,7.05e-06,0.0,0 STARLINK-3722,1 52089U 22029B   24055.35200483  .00000705  00000-0  62377-4 0  9991,2 52089  53.2186 190.5907 0001464  90.8801 269.2359 15.08837455108284,6917.888,95.438,540.766,538.74,0.0
52089.0,STARLINK-3722,PAYLOAD,2024-02-24 13:13:03,15.08832264,0.0001231,53.2182,189.6941,98.5997,261.5134,3.5204e-05,2.72e-06,0.0,0 STARLINK-3722,1 52089U 22029B   24055.55072977  .00000272  00000-0  35204-4 0  9996,2 52089  53.2182 189.6941 0001231  98.5997 261.5134 15.08832264108313,6917.904,95.438,540.621,538.917,0.0
52089.0,STARLINK-3722,PAYLOAD,2024-02-25 14:39:13,15.08842744,0.00013,53.2184,184.9352,96.4575,263.6565,-4.3371e-05,-9.78e-06,0.0,0 STARLINK-3722,1 52089U 22029B   24056.61056998 -.00000978  00000-0 -43371-4 0  9998,2 52089  53.2184 184.9352 0001300  96.4575 263.6565 15.08842744108477,6917.872,95.437,540.636,538.838,0.0
52089.0,STARLINK-3722,PAYLOAD,2024-02-25 17:49:58,15.08848402,0.000112,53.2168,184.3397,78.5887,281.5231,0.00012491,1.701e-05,0.0,0 STARLINK-3722,1 52089U 22029B   24056.74304254  .00001701  00000-0  12491-3 0  9994,2 52089  53.2168 184.3397 0001120  78.5887 281.5231 15.08848402108497,6917.855,95.437,540.495,538.945,0.0
